ONEWEB-0116             
1 48046U 21025E   24215.20533513 -.00002423  00000+0 -66696-2 0  9995
2 48046  87.8900  96.3373 0001940  74.6664 285.4679 13.13484035163861
ONEWEB-0150             
1 48047U 21025F   24215.10377593  .00000055  00000+0  11563-3 0  9990
2 48047  87.8897  96.3740 0001874  82.3964 277.7377 13.13473044163744
ONEWEB-0107             
1 48048U 21025G   24214.95299506 -.00000236  00000+0 -68119-3 0  9992
2 48048  87.8895  96.4020 0001901  87.3307 272.8040 13.13470468163708
ONEWEB-0101             
1 48049U 21025H   24215.22121476  .00000057  00000+0  12101-3 0  9993
2 48049  87.8904  96.3676 0001727  78.1983 281.9340 13.13470008163715
ONEWEB-0113             
1 48050U 21025J   24214.97045586  .00000381  00000+0  10076-2 0  9991
2 48050  87.8903  96.3991 0001831  74.3084 285.8247 13.13472022163764
ONEWEB-0112             
1 48051U 21025K   24215.11012566  .00000148  00000+0  37157-3 0  9992
2 48051  87.8895  96.3682 0001923  78.9925 281.1420 13.13469792163805
ONEWEB-0156             
1 48052U 21025L   24215.42435822  .00000279  00000+0  72845-3 0  9999
2 48052  87.8898  96.3047 0001875  79.7600 280.3740 13.13469441163828
ONEWEB-0161             
1 48053U 21025M   24215.09266453 -.00000216  00000+0 -62684-3 0  9998
2 48053  87.8903  96.3793 0001682  82.1546 277.9774 13.13471778163710
